ONEWEB-0029             
1 45445U 20020X   24117.20669029 -.00000179  00000+0 -54004-3 0  9999
2 45445  87.9012 176.6042 0001782  97.9840 262.1490 13.11418799200170
ONEWEB-0068             
1 45446U 20020Y   24116.72373184 -.00000328  00000+0 -96175-3 0  9991
2 45446  87.9007 176.6845 0001867 104.6089 255.5246 13.11415969200059
ONEWEB-0046             
1 45447U 20020Z   24117.17908626  .00005553  00000+0  15629-1 0  9993
2 45447  87.9005 176.6078 0002416  90.2143 269.9262 13.11384154200124
ONEWEB-0063             
1 45448U 20020AA  24116.67423826 -.00000014  00000+0 -75577-4 0  9992
2 45448  87.9012 176.7082 0002107  91.6647 268.4723 13.11419882200134
ONEWEB-0019             
1 45449U 20020AB  24117.18233418  .00010655  00000+0  30021-1 0  9998
2 45449  87.9027 176.6075 0002031 100.5625 259.5732 13.11355637200053
ONEWEB-0094             
1 45450U 20020AC  24116.68279557  .00000009  00000+0 -99818-5 0  9994
2 45450  87.9199 161.5629 0001861  97.4946 262.6397 13.17649421203264
ONEWEB-0087             
1 45451U 20020AD  24116.68071311  .00000059  00000+0  13035-3 0  9992
2 45451  87.9006 176.6808 0001704  98.9503 261.1818 13.11419803200025
ONEWEB-0082             
1 45452U 20020AE  24116.60605697  .00000378  00000+0  10310-2 0  9991
2 45452  87.9012 176.6981 0002061 101.7060 258.4299 13.11418670200105
ONEWEB-0050             
1 45453U 20020AF  24117.19784455  .00006222  00000+0  65660-3 0  9990
2 45453  88.0056  41.3009 0000395  38.2939 321.8317 14.89160608223889
ONEWEB-0034             
1 45454U 20020AG  24116.70183517  .00000447  00000+0  12260-2 0  9999
2 45454  87.9007 176.6977 0001952  95.1983 264.9367 13.11415362200039
ONEWEB-0060             
1 45455U 20020AH  24116.70994239  .00000178  00000+0  46768-3 0  9993
2 45455  87.9010 176.6938 0001861  92.2698 267.8643 13.11414004199994
ONEWEB-0086             
1 45456U 20020AJ  24116.72778517 -.00000429  00000+0 -12467-2 0  9994
2 45456  87.9008 176.6931 0001527 103.7734 256.3564 13.11415221200050
ONEWEB-0088             
1 45457U 20020AK  24116.70507612  .00000382  00000+0  10417-2 0  9998
2 45457  87.9001 176.6659 0001900  87.2712 272.8634 13.11414155199983
ONEWEB-0102             
1 47258U 20100A   24116.63746770 -.00000223  00000+0 -65472-3 0  9998
2 47258  87.8947 146.4748 0002160  96.9832 263.1543 13.12441398162088
ONEWEB-0109             
1 47259U 20100B   24116.64540336 -.00000381  00000+0 -10939-2 0  9992
2 47259  87.8950 146.4371 0002171 101.3991 258.7382 13.12441738161914
ONEWEB-0110             
1 47260U 20100C   24116.59299731  .00000067  00000+0  15132-3 0  9998
2 47260  87.8946 146.4559 0002081 101.6662 258.4701 13.12443678162072
ONEWEB-0111             
1 47261U 20100D   24117.16001781  .00000181  00000+0  46846-3 0  9992
2 47261  87.8947 146.3377 0002093  98.4042 261.7323 13.12443511161981
ONEWEB-0114             
1 47262U 20100E   24117.11394883 -.00000382  00000+0 -10977-2 0  9996
2 47262  87.8942 146.3640 0002566  97.0463 263.0958 13.12444671161939
ONEWEB-0117             
1 47263U 20100F   24117.10600602 -.00000382  00000+0 -10972-2 0  9990
2 47263  87.8948 146.3386 0001997  95.4085 264.7271 13.12442491161947
ONEWEB-0118             
1 47264U 20100G   24116.60412495  .00000435  00000+0  11731-2 0  9997
2 47264  87.8948 146.4423 0002504  84.2619 275.8794 13.12444094162074
ONEWEB-0119             
1 47265U 20100H   24117.16633940  .00001355  00000+0  37296-2 0  9996
2 47265  87.8952 146.3715 0002079 107.2955 252.8401 13.12453815162126
ONEWEB-0120             
1 47266U 20100J   24117.11249004 -.00000390  00000+0 -11181-2 0  9991
2 47266  87.8949 146.3687 0002109 100.2067 259.9299 13.12443657162140
ONEWEB-0121             
1 47267U 20100K   24116.64381943 -.00000403  00000+0 -11554-2 0  9997
2 47267  87.8944 146.4555 0001944 102.8024 257.3321 13.12442408161991
ONEWEB-0122             
1 47268U 20100L   24117.09633435 -.00000453  00000+0 -12948-2 0  9997
2 47268  87.8941 146.3704 0002108 100.8747 259.2618 13.12443375161968
ONEWEB-0123             
1 47269U 20100M   24116.63429354 -.00000193  00000+0 -57290-3 0  9991
2 47269  87.8949 146.4738 0002139  93.9820 266.1553 13.12441955162040
ONEWEB-0124             
1 47270U 20100N   24117.15684016  .00000220  00000+0  57723-3 0  9999
2 47270  87.8946 146.3668 0001732 100.8996 259.2328 13.12442422161996
ONEWEB-0125             
1 47271U 20100P   24116.59775735  .00000238  00000+0  62697-3 0  9991
2 47271  87.8951 146.4356 0001859  85.3435 274.7906 13.12445254161982
ONEWEB-0126             
1 47272U 20100Q   24116.62554600  .00000091  00000+0  21839-3 0  9992
2 47272  87.8944 146.4393 0002182  96.1806 263.9571 13.12442878162054
ONEWEB-0127             
1 47273U 20100R   24116.58664031 -.00000149  00000+0 -44988-3 0  9994
2 47273  87.8954 146.4729 0002179  97.6936 262.4440 13.12442843162078
ONEWEB-0128             
1 47274U 20100S   24117.14254214  .00000250  00000+0  65859-3 0  9997
2 47274  87.8953 146.3632 0001951 104.6038 255.5307 13.12447925162160
ONEWEB-0129             
1 47275U 20100T   24117.12189189 -.00000182  00000+0 -54099-3 0  9994
2 47275  87.8948 146.3368 0003650  94.1178 266.0368 13.12443274162096
ONEWEB-0130             
1 47276U 20100U   24116.61681696  .00000431  00000+0  11626-2 0  9991
2 47276  87.8949 146.4457 0002051  96.8178 263.3184 13.12441147161992
ONEWEB-0131             
1 47277U 20100V   24116.61365116  .00000420  00000+0  11317-2 0  9993
2 47277  87.8950 146.4605 0001933  97.2540 262.8808 13.12441931162030
ONEWEB-0132             
1 47278U 20100W   24117.09965628 -.00000389  00000+0 -11173-2 0  9997
2 47278  87.8948 146.3651 0001789 101.4368 258.6961 13.12443418161992
ONEWEB-0133             
1 47279U 20100X   24117.11553574 -.00000318  00000+0 -92042-3 0  9991
2 47279  87.8944 146.3636 0001948 102.3755 257.7592 13.12444658162155
ONEWEB-0134             
1 47280U 20100Y   24116.62793198  .00000174  00000+0  44737-3 0  9992
2 47280  87.8941 146.4492 0002135 104.3682 255.7684 13.12440574162068
ONEWEB-0135             
1 47281U 20100Z   24116.59617778  .00000131  00000+0  32787-3 0  9993
2 47281  87.8952 146.4677 0002032  98.7751 261.3608 13.12445668162085
ONEWEB-0136             
1 47282U 20100AA  24116.61840228 -.00000842  00000+0 -23752-2 0  9997
2 47282  87.8949 146.4334 0002433 108.2117 251.9276 13.12444302162013
ONEWEB-0137             
1 47283U 20100AB  24117.10917993 -.00000300  00000+0 -86823-3 0  9995
2 47283  87.8944 146.3618 0002221  97.4017 262.7364 13.12442656161989
ONEWEB-0138             
1 47284U 20100AC  24117.08854290  .00000108  00000+0  26426-3 0  9990
2 47284  87.8943 146.3782 0002110  98.2226 261.9142 13.12443745162064
ONEWEB-0139             
1 47285U 20100AD  24116.60253224  .00000371  00000+0  99606-3 0  9990
2 47285  87.8950 146.4449 0001998  95.3770 264.7586 13.12444129162070
ONEWEB-0140             
1 47286U 20100AE  24116.62476985  .00000229  00000+0  60227-3 0  9993
2 47286  87.8944 146.4453 0002110  98.7917 261.3451 13.12441017162040
ONEWEB-0141             
1 47287U 20100AF  24117.10202697 -.00000416  00000+0 -11908-2 0  9996
2 47287  87.8944 146.3502 0001944  88.8978 271.2373 13.12444086162093
ONEWEB-0142             
1 47288U 20100AG  24116.63824498 -.00000267  00000+0 -77853-3 0  9999
2 47288  87.8944 146.4348 0002268  93.7215 266.4173 13.12440707162025
ONEWEB-0143             
1 47289U 20100AH  24116.89635428  .00000013  00000+0  16180-5 0  9996
2 47289  87.8948 146.4032 0002000  92.7746 267.3611 13.12443269162036
ONEWEB-0144             
1 47290U 20100AJ  24116.64065342 -.00000363  00000+0 -10435-2 0  9997
2 47290  87.8947 146.4377 0002457 100.5518 259.5887 13.12441386161923
ONEWEB-0145             
1 47291U 20100AK  24117.14572872  .00000239  00000+0  62952-3 0  9997
2 47291  87.8944 146.3622 0002135  94.6294 265.5078 13.12443700162180
ONEWEB-0146             
1 47292U 20100AL  24116.60729766  .00000437  00000+0  11786-2 0  9992
2 47292  87.8949 146.4508 0001533  88.6024 271.5280 13.12443704162024
ONEWEB-0147             
1 47293U 20100AM  24116.65017228 -.00000378  00000+0 -10855-2 0  9993
2 47293  87.8941 146.4385 0002174 106.7415 253.3953 13.12442392161923
ONEWEB-0115             
1 48042U 21025A   24116.90770565  .00000588  00000+0  15746-2 0  9996
2 48042  87.8887 115.9601 0001739  87.3864 272.7464 13.13469582150904
ONEWEB-0152             
1 48043U 21025B   24117.07275112  .00000294  00000+0  77141-3 0  9996
2 48043  87.8889 115.9232 0001853  89.4037 270.7304 13.13469490150896
ONEWEB-0153             
1 48044U 21025C   24116.89816536  .00000287  00000+0  74991-3 0  9999
2 48044  87.8891 115.9441 0002062  89.0554 271.0812 13.13469801150855
ONEWEB-0154             
1 48045U 21025D   24116.89499320  .00000272  00000+0  70902-3 0  9990
2 48045  87.8890 115.9578 0001945  91.1655 268.9697 13.13470678150817
ONEWEB-0116             
1 48046U 21025E   24116.93625123 -.00000148  00000+0 -43959-3 0  9994
2 48046  87.8892 115.9168 0001705  88.6443 271.4882 13.13471501150962
ONEWEB-0150             
1 48047U 21025F   24116.91086910  .00000474  00000+0  12627-2 0  9995
2 48047  87.8886 115.9438 0002052  88.5502 271.5862 13.13469582150850
ONEWEB-0107             
1 48048U 21025G   24116.53156073  .00000326  00000+0  85779-3 0  9997
2 48048  87.8887 116.0171 0002289  89.2250 270.9142 13.13471943150788
ONEWEB-0101             
1 48049U 21025H   24116.95211242 -.00001099  00000+0 -30437-2 0  9994
2 48049  87.8891 115.9471 0001956  93.9296 266.2057 13.13473002150812
ONEWEB-0113             
1 48050U 21025J   24117.00608008  .00000042  00000+0  81282-4 0  9994
2 48050  87.8888 115.9178 0001813  93.5431 266.5906 13.13471957150906
ONEWEB-0112             
1 48051U 21025K   24117.06956713  .00000260  00000+0  67812-3 0  9994
2 48051  87.8886 115.9077 0001957  86.6324 273.5029 13.13468536150932
